{
  "norad_id": 63429,
  "name": "HJS-6B",
  "history": [
    {
      "epoch": "2026-03-28T22:43:33.658176",
      "apogee_km": 467.74023643977216,
      "perigee_km": 453.4541207406983,
      "latitude_deg": 25.08304573198165,
      "longitude_deg": -106.195935360156,
      "semi_major_axis_km": 6838.734178590235,
      "eccentricity": 0.0010445,
      "inclination_deg": 54.9923,
      "raan_deg": 23.143,
      "arg_perigee_deg": 117.8512,
      "mean_anomaly_deg": 242.3574,
      "mean_motion_rev_day": 15.35108857
    }
  ]
}