{"fetched_at":"2026-03-30T06:02:59Z","count":15439,"tles":[{"name":"HJS-6B","line1":"1 63429U 25067B   26087.94691734  .00010803  00000+0  32296-3 0  9996","line2":"2 63429  54.9923  23.1430 0010445 117.8512 242.3574 15.35108857 55673","category":"Other"}]}